{
  "norad_id": 53833,
  "name": "STARLINK-4771",
  "history": [
    {
      "epoch": "2026-03-28T16:53:44.238336",
      "apogee_km": 540.6499910075245,
      "perigee_km": 538.8175853931452,
      "latitude_deg": 17.07851890493313,
      "longitude_deg": -9.117512959754094,
      "semi_major_axis_km": 6917.870788200335,
      "eccentricity": 0.00013244,
      "inclination_deg": 53.2175,
      "raan_deg": 218.6384,
      "arg_perigee_deg": 100.6509,
      "mean_anomaly_deg": 259.4633,
      "mean_motion_rev_day": 15.08843141
    }
  ]
}